start=new Date('2022-04-07T00:00:00.000Z').valueOf();
sats=[{"TLE_LINE2":"2 48391  53.0551 293.7599 0001922  54.3594 305.7574 15.06393374 52564","ELEMENT_SET_NO":"999","LAUNCH_DATE":"2021-05-04","CENTER_NAME":"EARTH","REF_FRAME":"TEME","NORAD_CAT_ID":"48391","BSTAR":"0.00008425200000","MEAN_MOTION_DOT":"0.00000973","MEAN_ELEMENT_THEORY":"SGP4","SITE":"AFETR","EPHEMERIS_TYPE":"0","RCS_SIZE":"LARGE","COUNTRY_CODE":"US","DECAY_DATE":null,"SEMIMAJOR_AXIS":"6925.369","GP_ID":"200625335","REV_AT_EPOCH":"5256","MEAN_MOTION":"15.06393374","OBJECT_ID":"2021-038AQ","CLASSIFICATION_TYPE":"U","FILE":"3391320","RA_OF_ASC_NODE":"293.7599","MEAN_ANOMALY":"305.7574","PERIAPSIS":"545.903","INCLINATION":"53.0551","EPOCH":"2022-04-06T21:06:24.389280","OBJECT_TYPE":"PAYLOAD","ARG_OF_PERICENTER":"54.3594","MEAN_MOTION_DDOT":"0.0000000000000","OBJECT_NAME":"STARLINK-2607","ECCENTRICITY":"0.00019220","TLE_LINE1":"1 48391U 21038AQ  22096.87944895  .00000973  00000-0  84252-4 0  9996","APOAPSIS":"548.565","PERIOD":"95.593","TIME_SYSTEM":"UTC"},{"OBJECT_TYPE":"PAYLOAD","EPOCH":"2022-04-06T19:25:33.308256","ARG_OF_PERICENTER":"56.2508","MEAN_MOTION_DDOT":"0.0000000000000","OBJECT_ID":"2021-038AR","CLASSIFICATION_TYPE":"U","FILE":"3391320","MEAN_ANOMALY":"303.8653","PERIAPSIS":"545.952","RA_OF_ASC_NODE":"294.0738","INCLINATION":"53.0550","TLE_LINE1":"1 48392U 21038AR  22096.80941329  .00002513  00000-0  18752-3 0  9992","PERIOD":"95.592","APOAPSIS":"548.448","TIME_SYSTEM":"UTC","OBJECT_NAME":"STARLINK-2605","ECCENTRICITY":"0.00018020","MEAN_MOTION_DOT":"0.00002513","SITE":"AFETR","EPHEMERIS_TYPE":"0","MEAN_ELEMENT_THEORY":"SGP4","RCS_SIZE":"LARGE","ELEMENT_SET_NO":"999","TLE_LINE2":"2 48392  53.0550 294.0738 0001802  56.2508 303.8653 15.06404377 52558","CENTER_NAME":"EARTH","LAUNCH_DATE":"2021-05-04","NORAD_CAT_ID":"48392","REF_FRAME":"TEME","BSTAR":"0.00018752000000","GP_ID":"200624083","REV_AT_EPOCH":"5255","MEAN_MOTION":"15.06404377","COUNTRY_CODE":"US","DECAY_DATE":null,"SEMIMAJOR_AXIS":"6925.335"},{"PERIOD":"95.591","APOAPSIS":"548.256","TIME_SYSTEM":"UTC","TLE_LINE1":"1 48393U 21038AS  22096.80572940  .00006950  00000-0  48482-3 0  9994","OBJECT_NAME":"STARLINK-2602","ECCENTRICITY":"0.00015790","MEAN_MOTION_DDOT":"0.0000000000000","ARG_OF_PERICENTER":"55.7469","OBJECT_TYPE":"PAYLOAD","EPOCH":"2022-04-06T19:20:15.020160","PERIAPSIS":"546.069","MEAN_ANOMALY":"304.3670","RA_OF_ASC_NODE":"294.0970","INCLINATION":"53.0540","OBJECT_ID":"2021-038AS","FILE":"3391320","CLASSIFICATION_TYPE":"U","MEAN_MOTION":"15.06416503","GP_ID":"200624833","REV_AT_EPOCH":"5255","SEMIMAJOR_AXIS":"6925.298","COUNTRY_CODE":"US","DECAY_DATE":null,"SITE":"AFETR","EPHEMERIS_TYPE":"0","MEAN_ELEMENT_THEORY":"SGP4","RCS_SIZE":"LARGE","MEAN_MOTION_DOT":"0.00006950","NORAD_CAT_ID":"48393","REF_FRAME":"TEME","BSTAR":"0.00048482000000","ELEMENT_SET_NO":"999","TLE_LINE2":"2 48393  53.0540 294.0970 0001579  55.7469 304.3670 15.06416503 52556","CENTER_NAME":"EARTH","LAUNCH_DATE":"2021-05-04"},{"OBJECT_NAME":"STARLINK-2573","ECCENTRICITY":"0.00015900","TLE_LINE1":"1 48394U 21038AT  22096.86839154 -.00000629  00000-0 -23345-4 0  9995","APOAPSIS":"548.312","PERIOD":"95.592","TIME_SYSTEM":"UTC","OBJECT_ID":"2021-038AT","CLASSIFICATION_TYPE":"U","FILE":"3391320","RA_OF_ASC_NODE":"293.8032","MEAN_ANOMALY":"300.0321","PERIAPSIS":"546.110","INCLINATION":"53.0562","EPOCH":"2022-04-06T20:50:29.029056","OBJECT_TYPE":"PAYLOAD","MEAN_MOTION_DDOT":"0.0000000000000","ARG_OF_PERICENTER":"60.0826","COUNTRY_CODE":"US","DECAY_DATE":null,"SEMIMAJOR_AXIS":"6925.346","GP_ID":"200625085","REV_AT_EPOCH":"5256","MEAN_MOTION":"15.06400877","TLE_LINE2":"2 48394  53.0562 293.8032 0001590  60.0826 300.0321 15.06400877 52560","ELEMENT_SET_NO":"999","LAUNCH_DATE":"2021-05-04","CENTER_NAME":"EARTH","NORAD_CAT_ID":"48394","REF_FRAME":"TEME","BSTAR":"-0.00002334500000","MEAN_MOTION_DOT":"-0.00000629","MEAN_ELEMENT_THEORY":"SGP4","SITE":"AFETR","EPHEMERIS_TYPE":"0","RCS_SIZE":"LARGE"},{"MEAN_MOTION":"15.06405849","GP_ID":"200625835","REV_AT_EPOCH":"5257","SEMIMAJOR_AXIS":"6925.331","COUNTRY_CODE":"US","DECAY_DATE":null,"MEAN_ELEMENT_THEORY":"SGP4","EPHEMERIS_TYPE":"0","SITE":"AFETR","RCS_SIZE":"LARGE","MEAN_MOTION_DOT":"0.00001505","NORAD_CAT_ID":"48395","REF_FRAME":"TEME","BSTAR":"0.00011987000000","TLE_LINE2":"2 48395  53.0547 293.5759 0001665  55.9621 304.1526 15.06405849 52573","ELEMENT_SET_NO":"999","LAUNCH_DATE":"2021-05-04","CENTER_NAME":"EARTH","APOAPSIS":"548.349","PERIOD":"95.592","TIME_SYSTEM":"UTC","TLE_LINE1":"1 48395U 21038AU  22096.91904553  .00001505  00000-0  11987-3 0  9998","OBJECT_NAME":"STARLINK-2574","ECCENTRICITY":"0.00016650","ARG_OF_PERICENTER":"55.9621","MEAN_MOTION_DDOT":"0.0000000000000","EPOCH":"2022-04-06T22:03:25.533792","OBJECT_TYPE":"PAYLOAD","RA_OF_ASC_NODE":"293.5759","MEAN_ANOMALY":"304.1526","PERIAPSIS":"546.043","INCLINATION":"53.0547","OBJECT_ID":"2021-038AU","CLASSIFICATION_TYPE":"U","FILE":"3391320"},{"ECCENTRICITY":"0.00015670","OBJECT_NAME":"STARLINK-2575","TLE_LINE1":"1 48396U 21038AV  22096.93103691 -.00000238  00000-0  29071-5 0  9993","TIME_SYSTEM":"UTC","APOAPSIS":"548.268","PERIOD":"95.592","FILE":"3391320","CLASSIFICATION_TYPE":"U","OBJECT_ID":"2021-038AV","INCLINATION":"53.0547","RA_OF_ASC_NODE":"293.5293","PERIAPSIS":"546.097","MEAN_ANOMALY":"303.8891","EPOCH":"2022-04-06T22:20:41.589024","OBJECT_TYPE":"PAYLOAD","MEAN_MOTION_DDOT":"0.0000000000000","ARG_OF_PERICENTER":"56.2247","DECAY_DATE":null,"COUNTRY_CODE":"US","SEMIMAJOR_AXIS":"6925.318","REV_AT_EPOCH":"5257","GP_ID":"200624583","MEAN_MOTION":"15.06410073","LAUNCH_DATE":"2021-05-04","CENTER_NAME":"EARTH","TLE_LINE2":"2 48396  53.0547 293.5293 0001567  56.2247 303.8891 15.06410073 52572","ELEMENT_SET_NO":"999","BSTAR":"0.00000290710000","REF_FRAME":"TEME","NORAD_CAT_ID":"48396","MEAN_MOTION_DOT":"-0.00000238","RCS_SIZE":"LARGE","MEAN_ELEMENT_THEORY":"SGP4","SITE":"AFETR","EPHEMERIS_TYPE":"0"},{"GP_ID":"200624334","REV_AT_EPOCH":"5256","MEAN_MOTION":"15.06404736","COUNTRY_CODE":"US","DECAY_DATE":null,"SEMIMAJOR_AXIS":"6925.334","MEAN_MOTION_DOT":"0.00002109","MEAN_ELEMENT_THEORY":"SGP4","SITE":"AFETR","EPHEMERIS_TYPE":"0","RCS_SIZE":"LARGE","TLE_LINE2":"2 48397  53.0543 293.8421 0001420  71.8577 288.2567 15.06404736 52566","ELEMENT_SET_NO":"999","LAUNCH_DATE":"2021-05-04","CENTER_NAME":"EARTH","NORAD_CAT_ID":"48397","REF_FRAME":"TEME","BSTAR":"0.00016040000000","TLE_LINE1":"1 48397U 21038AW  22096.86101613  .00002109  00000-0  16040-3 0  9996","APOAPSIS":"548.182","PERIOD":"95.592","TIME_SYSTEM":"UTC","OBJECT_NAME":"STARLINK-2590","ECCENTRICITY":"0.00014200","EPOCH":"2022-04-06T20:39:51.793632","OBJECT_TYPE":"PAYLOAD","ARG_OF_PERICENTER":"71.8577","MEAN_MOTION_DDOT":"0.0000000000000","OBJECT_ID":"2021-038AW","CLASSIFICATION_TYPE":"U","FILE":"3391320","RA_OF_ASC_NODE":"293.8421","PERIAPSIS":"546.216","MEAN_ANOMALY":"288.2567","INCLINATION":"53.0543"},{"ARG_OF_PERICENTER":"58.3402","MEAN_MOTION_DDOT":"0.0000000000000","OBJECT_TYPE":"PAYLOAD","EPOCH":"2022-04-06T20:34:33.951360","MEAN_ANOMALY":"301.7737","PERIAPSIS":"546.171","RA_OF_ASC_NODE":"293.8592","INCLINATION":"53.0544","OBJECT_ID":"2021-038AX","FILE":"3391320","CLASSIFICATION_TYPE":"U","PERIOD":"95.593","APOAPSIS":"548.312","TIME_SYSTEM":"UTC","TLE_LINE1":"1 48398U 21038AX  22096.85733740  .00000565  00000-0  56847-4 0  9992","OBJECT_NAME":"STARLINK-2588","ECCENTRICITY":"0.00015460","EPHEMERIS_TYPE":"0","SITE":"AFETR","MEAN_ELEMENT_THEORY":"SGP4","RCS_SIZE":"LARGE","MEAN_MOTION_DOT":"0.00000565","REF_FRAME":"TEME","NORAD_CAT_ID":"48398","BSTAR":"0.00005684700000","ELEMENT_SET_NO":"999","TLE_LINE2":"2 48398  53.0544 293.8592 0001546  58.3402 301.7737 15.06390895 52563","CENTER_NAME":"EARTH","LAUNCH_DATE":"2021-05-04","MEAN_MOTION":"15.06390895","GP_ID":"200625585","REV_AT_EPOCH":"5256","SEMIMAJOR_AXIS":"6925.376","COUNTRY_CODE":"US","DECAY_DATE":null},{"NORAD_CAT_ID":"48399","REF_FRAME":"TEME","BSTAR":"0.00037551000000","ELEMENT_SET_NO":"999","TLE_LINE2":"2 48399  53.0552 293.5803 0001804  54.7261 305.3896 15.06383959 52564","CENTER_NAME":"EARTH","LAUNCH_DATE":"2021-05-04","SITE":"AFETR","EPHEMERIS_TYPE":"0","MEAN_ELEMENT_THEORY":"SGP4","RCS_SIZE":"LARGE","MEAN_MOTION_DOT":"0.00005314","SEMIMAJOR_AXIS":"6925.398","COUNTRY_CODE":"US","DECAY_DATE":null,"MEAN_MOTION":"15.06383959","GP_ID":"200625336","REV_AT_EPOCH":"5256","MEAN_ANOMALY":"305.3896","PERIAPSIS":"546.013","RA_OF_ASC_NODE":"293.5803","INCLINATION":"53.0552","OBJECT_ID":"2021-038AY","FILE":"3391320","CLASSIFICATION_TYPE":"U","MEAN_MOTION_DDOT":"0.0000000000000","ARG_OF_PERICENTER":"54.7261","OBJECT_TYPE":"PAYLOAD","EPOCH":"2022-04-06T22:04:47.930880","OBJECT_NAME":"STARLINK-2587","ECCENTRICITY":"0.00018040","PERIOD":"95.593","APOAPSIS":"548.512","TIME_SYSTEM":"UTC","TLE_LINE1":"1 48399U 21038AY  22096.91999920  .00005314  00000-0  37551-3 0  9991"},{"LAUNCH_DATE":"2021-05-04","CENTER_NAME":"EARTH","TLE_LINE2":"2 48400  53.0538 293.6014 0001717  50.7182 309.3959 15.06399555 51356","ELEMENT_SET_NO":"999","BSTAR":"0.00009434200000","REF_FRAME":"TEME","NORAD_CAT_ID":"48400","MEAN_MOTION_DOT":"0.00001124","RCS_SIZE":"LARGE","MEAN_ELEMENT_THEORY":"SGP4","SITE":"AFETR","EPHEMERIS_TYPE":"0","DECAY_DATE":null,"COUNTRY_CODE":"US","SEMIMAJOR_AXIS":"6925.350","REV_AT_EPOCH":"5135","GP_ID":"200624084","MEAN_MOTION":"15.06399555","CLASSIFICATION_TYPE":"U","FILE":"3391320","OBJECT_ID":"2021-038AZ","INCLINATION":"53.0538","RA_OF_ASC_NODE":"293.6014","MEAN_ANOMALY":"309.3959","PERIAPSIS":"546.026","EPOCH":"2022-04-06T21:59:28.997376","OBJECT_TYPE":"PAYLOAD","ARG_OF_PERICENTER":"50.7182","MEAN_MOTION_DDOT":"0.0000000000000","ECCENTRICITY":"0.00017170","OBJECT_NAME":"STARLINK-2576","TLE_LINE1":"1 48400U 21038AZ  22096.91630784  .00001124  00000-0  94342-4 0  9991","TIME_SYSTEM":"UTC","APOAPSIS":"548.404","PERIOD":"95.592"}];
